[{"name":"SCD 1","line1":"1 22490U 93009B   26177.26667163  .00000382  00000+0  53461-4 0  9993","line2":"2 22490  24.9681 151.5137 0041688 233.8672 148.8488 14.46121810762431"},{"name":"TECHSAT 1B (GO-32)","line1":"1 25397U 98043D   26177.47694676  .00000058  00000+0  45347-4 0  9991","line2":"2 25397  99.0071 170.4701 0001524 145.3708 214.7569 14.24430067452651"},{"name":"SCD 2","line1":"1 25504U 98060A   26177.62178426  .00000366  00000+0  51283-4 0  9995","line2":"2 25504  24.9966  13.9761 0016604 222.3729 187.5555 14.45529056461698"},{"name":"DLR-TUBSAT","line1":"1 25757U 99029B   26177.45582601  .00000091  00000+0  34177-4 0  9994","line2":"2 25757  98.6697 173.2649 0013510 326.1624  33.8707 14.52428947434598"},{"name":"TERRA","line1":"1 25994U 99068A   26177.62404847  .00000349  00000+0  79902-4 0  9995","line2":"2 25994  97.9452 226.7960 0002327 162.1758 358.8950 14.61109889410980"},{"name":"MAROC-TUBSAT","line1":"1 27004U 01056D   26177.49507226 -.00000018  00000+0  32549-4 0  9999","line2":"2 27004  99.8086 354.5301 0020542 118.1668 307.3363 13.70262818227464"},{"name":"AQUA","line1":"1 27424U 02022A   26177.78218816  .00000715  00000+0  15191-3 0  9991","line2":"2 27424  98.4280 147.2569 0000779  66.6322  50.5612 14.62171443284673"},{"name":"SHIYAN-1 (SY-1)","line1":"1 28220U 04012A   26177.18627236  .00015562  00000+0  47543-3 0  9993","line2":"2 28220  97.8696 255.8401 0004808   0.6274 359.4972 15.33979243212476"},{"name":"AURA","line1":"1 28376U 04026A   26177.57205451  .00000713  00000+0  15416-3 0  9990","line2":"2 28376  98.3420 134.1031 0001172  83.0995 277.0339 14.61342044167589"},{"name":"IRS-P5 (CARTOSAT-1)","line1":"1 28649U 05017A   26177.54053447  .00001426  00000+0  14925-3 0  9993","line2":"2 28649  97.5306 200.1807 0002341  68.3101 291.8368 14.91071774145219"},{"name":"SINAH 1","line1":"1 28893U 05043D   26177.68997897  .00000305  00000+0  67411-4 0  9998","line2":"2 28893  98.2871 312.0684 0013274 244.1434 115.8399 14.64163543101915"},{"name":"RESURS-DK 1","line1":"1 29228U 06021A   26177.68632978  .00002228  00000+0  13107-3 0  9992","line2":"2 29228  69.9338 314.9640 0006756 287.2265  72.8161 15.13253700104014"},{"name":"ARIRANG-2 (KOMPSAT-2)","line1":"1 29268U 06031A   26177.78783745  .00000458  00000+0  94432-4 0  9991","line2":"2 29268  97.8310   1.7702 0015605  46.9319   9.1009 14.64666090 62888"},{"name":"LAPAN-TUBSAT","line1":"1 29709U 07001A   26177.74899288  .00000661  00000+0  82289-4 0  9998","line2":"2 29709  98.1343 177.1883 0012750 148.9295 211.2676 14.85958395 52576"},{"name":"HAIYANG-1B","line1":"1 31113U 07010A   26177.44418873  .00000094  00000+0  51682-4 0  9997","line2":"2 31113  98.3499 158.9305 0013650 168.6122 191.5373 14.31029127  1960"},{"name":"COSMO-SKYMED 1","line1":"1 31598U 07023A   26177.62575134  .00003051  00000+0  26931-3 0  9996","line2":"2 31598  97.8860   9.5611 0001812  89.4601 270.6828 14.97149225 31201"},{"name":"TERRASAR-X","line1":"1 31698U 07026A   26177.61088571  .00000881  00000+0  45155-4 0  9991","line2":"2 31698  97.4450 185.1818 0001614  89.1456 270.9963 15.19154138 54659"},{"name":"WORLDVIEW-1 (WV-1)","line1":"1 32060U 07041A   26177.74501274  .00006392  00000+0  26393-3 0  9991","line2":"2 32060  97.3882 297.3518 0001338 344.7117  15.4080 15.24366692 44333"},{"name":"YAOGAN-3","line1":"1 32289U 07055A   26177.72545208  .00000810  00000+0  87947-4 0  9994","line2":"2 32289  97.8156 207.5092 0001866  80.8354 279.3075 14.90814670  7297"},{"name":"COSMO-SKYMED 2","line1":"1 32376U 07059A   26177.74753610  .00000434  00000+0  61112-4 0  9993","line2":"2 32376  97.8888   1.2068 0001351  88.3106 271.8261 14.82152587  3423"},{"name":"RADARSAT-2","line1":"1 32382U 07061A   26177.76376177  .00000149  00000+0  74559-4 0  9996","line2":"2 32382  98.5780 184.5591 0001298  84.7061 275.4269 14.29983928967323"},{"name":"CARTOSAT-2A","line1":"1 32783U 08021A   26177.71952439  .00001215  00000+0  16996-3 0  9999","line2":"2 32783  97.7633 226.1030 0013356  81.2601 279.0123 14.79253973980214"},{"name":"HUANJING 1A (HJ-1A)","line1":"1 33320U 08041A   26177.74098197  .00001348  00000+0  16745-3 0  9993","line2":"2 33320  97.6683 163.2097 0020575 105.3715 254.9775 14.84008019959828"},{"name":"HUANJING 1B (HJ-1B)","line1":"1 33321U 08041B   26177.71441271  .00000789  00000+0  10147-3 0  9994","line2":"2 33321  97.6519 166.3270 0036903 149.8648 210.4700 14.83330722959827"},{"name":"GEOEYE 1","line1":"1 33331U 08042A   26177.71575028  .00001299  00000+0  25331-3 0  9992","line2":"2 33331  98.1335 251.5273 0005273  41.6987 318.4617 14.64634391951546"},{"name":"THEOS","line1":"1 33396U 08049A   26177.76221334  .00000198  00000+0  11287-3 0  9995","line2":"2 33396  98.5572 234.7350 0001169  80.5277 279.6033 14.20135104919327"},{"name":"COSMO-SKYMED 3","line1":"1 33412U 08054A   26177.77109752  .00002683  00000+0  18322-3 0  9998","line2":"2 33412  97.8272  36.5010 0014474 230.9646 129.0293 15.07002246958381"},{"name":"YAOGAN-4","line1":"1 33446U 08061A   26177.74677637  .00000962  00000+0  12418-3 0  9990","line2":"2 33446  97.9307 111.1864 0015329  44.0583 316.1849 14.83217517947082"},{"name":"GOSAT (IBUKI)","line1":"1 33492U 09002A   26177.75204074 -.00000080  00000+0 -56169-5 0  9995","line2":"2 33492  98.0901 288.7138 0001359  83.7790 276.3570 14.67538179932868"},{"name":"DEIMOS-1","line1":"1 35681U 09041A   26177.68212505  .00000923  00000+0  14348-3 0  9995","line2":"2 35681  97.7409 334.4989 0002180 117.4830 242.6601 14.75247944908281"}]