OBJECT_NAME,OBJECT_ID,EPOCH,MEAN_MOTION,ECCENTRICITY,INCLINATION,RA_OF_ASC_NODE,ARG_OF_PERICENTER,MEAN_ANOMALY,EPHEMERIS_TYPE,CLASSIFICATION_TYPE,NORAD_CAT_ID,ELEMENT_SET_NO,REV_AT_EPOCH,BSTAR,MEAN_MOTION_DOT,MEAN_MOTION_DDOT
SCD 1,1993-009B,2026-06-26T06:24:00.428832,14.46121810,.0041688,24.9681,151.5137,233.8672,148.8488,0,U,22490,999,76243,.53461E-4,.382E-5,0
TECHSAT 1B (GO-32),1998-043D,2026-06-26T11:26:48.200064,14.24430067,.0001524,99.0071,170.4701,145.3708,214.7569,0,U,25397,999,45265,.45347E-4,.58E-6,0
SCD 2,1998-060A,2026-06-26T14:55:22.160064,14.45529056,.0016604,24.9966,13.9761,222.3729,187.5555,0,U,25504,999,46169,.51283E-4,.366E-5,0
DLR-TUBSAT,1999-029B,2026-06-26T10:56:23.367264,14.52428947,.001351,98.6697,173.2649,326.1624,33.8707,0,U,25757,999,43459,.34177E-4,.91E-6,0
TERRA,1999-068A,2026-06-26T14:58:37.787808,14.61109889,.00023276,97.9452,226.7960,162.1758,358.8950,0,U,25994,999,41098,.79901811E-4,.349E-5,0
MAROC-TUBSAT,2001-056D,2026-06-26T11:52:54.243264,13.70262818,.00205424,99.8086,354.5301,118.1668,307.3363,0,U,27004,999,22746,.32548522E-4,-.18E-6,0
AQUA,2002-022A,2026-06-26T18:46:21.057024,14.62171443,.0000779,98.4280,147.2569,66.6322,50.5612,0,U,27424,999,28467,.15191E-3,.715E-5,0
SHIYAN-1 (SY-1),2004-012A,2026-06-26T04:28:13.931904,15.33979243,.00048081,97.8696,255.8401,0.6274,359.4972,0,U,28220,999,21247,.47543377E-3,.15562E-3,0
AURA,2004-026A,2026-06-26T13:43:45.509664,14.61342044,.00011729,98.3420,134.1031,83.0995,277.0339,0,U,28376,999,16758,.15415759E-3,.713E-5,0
IRS-P5 (CARTOSAT-1),2005-017A,2026-06-26T12:58:22.178208,14.91071774,.00023412,97.5306,200.1807,68.3101,291.8368,0,U,28649,999,14521,.14924806E-3,.1426E-4,0
SINAH 1,2005-043D,2026-06-26T16:33:34.183008,14.64163543,.0013274,98.2871,312.0684,244.1434,115.8399,0,U,28893,999,10191,.67411E-4,.305E-5,0
RESURS-DK 1,2006-021A,2026-06-26T16:28:18.892992,15.13253700,.0006756,69.9338,314.9640,287.2265,72.8161,0,U,29228,999,10401,.13107E-3,.2228E-4,0
ARIRANG-2 (KOMPSAT-2),2006-031A,2026-06-26T18:54:29.155680,14.64666090,.0015605,97.8310,1.7702,46.9319,9.1009,0,U,29268,999,6288,.94432E-4,.458E-5,0
LAPAN-TUBSAT,2007-001A,2026-06-26T17:58:32.984832,14.85958395,.001275,98.1343,177.1883,148.9295,211.2676,0,U,29709,999,5257,.82289E-4,.661E-5,0
HAIYANG-1B,2007-010A,2026-06-26T10:39:37.906272,14.31029127,.001365,98.3499,158.9305,168.6122,191.5373,0,U,31113,999,196,.51682E-4,.94E-6,0
COSMO-SKYMED 1,2007-023A,2026-06-26T15:01:04.915776,14.97149225,.00018123,97.8860,9.5611,89.4601,270.6828,0,U,31598,999,3120,.2693096E-3,.3051E-4,0
TERRASAR-X,2007-026A,2026-06-26T14:39:40.525344,15.19154138,.0001614,97.4450,185.1818,89.1456,270.9963,0,U,31698,999,5465,.45155E-4,.881E-5,0
WORLDVIEW-1 (WV-1),2007-041A,2026-06-26T17:52:49.100736,15.24366692,.0001338,97.3882,297.3518,344.7117,15.4080,0,U,32060,999,4433,.26393E-3,.6392E-4,0
YAOGAN-3,2007-055A,2026-06-26T17:24:39.059712,14.90814670,.0001866,97.8156,207.5092,80.8354,279.3075,0,U,32289,999,729,.87947E-4,.81E-5,0
COSMO-SKYMED 2,2007-059A,2026-06-26T17:56:27.119040,14.82152587,.0001351,97.8888,1.2068,88.3106,271.8261,0,U,32376,999,342,.61112E-4,.434E-5,0
RADARSAT-2,2007-061A,2026-06-26T18:19:49.016928,14.29983928,.0001298,98.5780,184.5591,84.7061,275.4269,0,U,32382,999,96732,.74559E-4,.149E-5,0
CARTOSAT-2A,2008-021A,2026-06-26T17:16:06.907296,14.79253973,.0013356,97.7633,226.1030,81.2601,279.0123,0,U,32783,999,98021,.16996E-3,.1215E-4,0
HUANJING 1A (HJ-1A),2008-041A,2026-06-26T17:47:00.842208,14.84008019,.0020575,97.6683,163.2097,105.3715,254.9775,0,U,33320,999,95982,.16745E-3,.1348E-4,0
HUANJING 1B (HJ-1B),2008-041B,2026-06-26T17:08:45.258144,14.83330722,.0036903,97.6519,166.3270,149.8648,210.4700,0,U,33321,999,95982,.10147E-3,.789E-5,0
GEOEYE 1,2008-042A,2026-06-26T17:10:40.824192,14.64634391,.0005273,98.1335,251.5273,41.6987,318.4617,0,U,33331,999,95154,.25331E-3,.1299E-4,0
THEOS,2008-049A,2026-06-26T18:17:35.232576,14.20135104,.0001169,98.5572,234.7350,80.5277,279.6033,0,U,33396,999,91932,.11287E-3,.198E-5,0
COSMO-SKYMED 3,2008-054A,2026-06-26T18:30:22.825728,15.07002246,.0014474,97.8272,36.5010,230.9646,129.0293,0,U,33412,999,95838,.18322E-3,.2683E-4,0
YAOGAN-4,2008-061A,2026-06-26T17:55:21.478368,14.83217517,.0015329,97.9307,111.1864,44.0583,316.1849,0,U,33446,999,94708,.12418E-3,.962E-5,0
GOSAT (IBUKI),2009-002A,2026-06-26T18:02:56.319936,14.67538179,.0001359,98.0901,288.7138,83.7790,276.3570,0,U,33492,999,93286,-.56169E-5,-.8E-6,0
DEIMOS-1,2009-041A,2026-06-26T16:22:15.604320,14.75247944,.000218,97.7409,334.4989,117.4830,242.6601,0,U,35681,999,90828,.14348E-3,.923E-5,0
